GLOBALSTAR M067 [+]     
1 32263U 07048A   23266.28258387 -.00000083  00000+0  10571-3 0  9995
2 32263  51.9719  87.7921 0001695  76.7117  94.5065 12.40631941731173
GLOBALSTAR M070 [+]     
1 32264U 07048B   23266.22324583 -.00000061  00000+0  23936-3 0  9997
2 32264  51.9733 256.7002 0000556 116.7038 257.3084 12.62278536734714
GLOBALSTAR M066 [+]     
1 32265U 07048C   23266.05553436 -.00000077  00000+0  15137-3 0  9991
2 32265  51.9661 119.2855 0001066  34.5553 130.6299 12.62264952736912
GLOBALSTAR M068 [-]     
1 32266U 07048D   23266.49294149 -.00000096  00000+0  45796-4 0  9999
2 32266  51.9886  70.8204 0001147 135.9833 258.5718 12.62766491737911
GLOBALSTAR M079 [+]     
1 37188U 10054A   23266.44035094 -.00000075  00000+0  15967-3 0  9998
2 37188  52.0023 265.9713 0000387  52.9829 111.4844 12.62267948597222
GLOBALSTAR M074 [+]     
1 37189U 10054B   23266.27517751 -.00000081  00000+0  12932-3 0  9991
2 37189  52.0001 265.8946 0000390  84.8158 288.8937 12.62270039597204
GLOBALSTAR M076 [+]     
1 37190U 10054C   23265.78180066 -.00000090  00000+0  77284-4 0  9995
2 37190  52.0017 267.5094 0000916  59.0617 112.1367 12.62261318596782
GLOBALSTAR M077 [+]     
1 37191U 10054D   23265.89446899 -.00000067  00000+0  20457-3 0  9990
2 37191  52.0055 223.8402 0000512  72.9512 308.9937 12.62260972597170
